#dP2023 12 11  6  0  0.00000000      96 __u+U IGS20 EXT  IAC
## 2292 108000.00000000   900.00000000 60289 0.2500000000000
+  118   C06C07C08C09C10C11C12C13C14C16C19C20C21C22C23C24C25
+        C26C27C28C29C30C32C33C34C35C36C37C38C39C40C41C42C43
+        C44C45C46E02E03E04E05E07E08E09E10E11E12E13E15E18E19
+        E21E24E25E26E27E30E31E33E34E36G01G02G03G04G05G06G07
+        G08G09G10G11G12G13G14G15G16G17G18G19G20G21G22G23G24
+        G25G26G27G28G29G30G31G32J02J03J04R01R02R03R04R05R07
+        R08R09R11R12R13R14R15R16R17R18R19R20R21R22R24R25  0
++         8 12  9  9  9 10  9  9  9  9  8  8  8  8  8  9  9
++         8  8 10  9 10  9  9  9  8  9  9 10  9  9  8  9  9
++         8  9  8  8  8  8  8  8  8  8  8  8  8  8  8  8  8
++         9  8  8  7  9  9  9  8  8  7  7  8  8  7  8  8  8
++         8  7  7  7  8  7  8  7  8  8  7  8  7  8  8  9  7
++         7  8  8  8  7  7  8  8 10  8  9  8  8  7  8  8  8
++         9  8  8  8  9  9  8  9  7  7  7  9  7  9  9  8  0
%c M  cc GPS ccc cccc cccc cccc cccc ccccc ccccc ccccc ccccc
%c cc cc ccc ccc cccc cccc cccc cccc ccccc ccccc ccccc ccccc
%f  0.0000000  0.000000000  0.00000000000  0.000000000000000
%f  0.0000000  0.000000000  0.00000000000  0.000000000000000
%i    0    0    0    0      0      0      0      0         0
%i    0    0    0    0      0      0      0      0         0
/* IAC                                ULTRA-RAPID PREDICTION
/* S/V CLOCKS ARE ALIGNED TO GNSS TIME                      
/* G:C1WC2W R:C1PC2P E:C1XC5X C:C2IC6I J:C1CC2S             
/* PCV:IGS20_2290 OL/AL:FES2004  NONE     YN ORB:CoN CLK:CoN
*  2023 12 12  5  0  0.00000000
PC06  -8200.474186  23321.114753  34172.925791    203.912929
PC07 -15796.943487  37342.019786 -11846.095943   -461.116517
PC08   -219.054269  37204.061382 -19638.681347    185.945533
PC09   4221.181107  26363.160312  33179.419236   -206.357367
PC10  -9103.292307  37237.211708 -17787.313524    -50.245172
PC11  21481.775883  -9874.139182  14890.671062    302.057295
PC12  27731.349372   1452.503271  -2692.186151    828.740890
PC13   3907.306371  39273.004454 -14275.417059    394.610151
PC14  17237.518391 -20193.869425   8521.294913   -265.701538
PC16 -10285.803663  22209.901451  34556.800606   -221.760597
PC19 -12654.226511  24871.829589    709.236783   -953.732875
PC20 -18929.608076  13936.224279 -15050.202839     36.665623
PC21  14243.515879   6535.327306  23100.545718   -967.915726
PC22   1208.338019  22140.893239  16947.673646   -189.960305
PC23  -9758.979369 -25188.659979  -7030.271118   -805.341644
PC24  17656.921374  -1187.113356 -21591.228612    684.233515
PC25   4479.203018 -19146.324855 -19824.311034    276.162776
PC26  20040.567430  15937.113190 -11072.335254   -218.988380
PC27 -24802.714578  -6876.577222  10757.016617    240.996010
PC28 -10399.265539 -14663.576438  21353.863733    182.295452
PC29 -12565.745686  14883.676700 -19982.822619    213.404044
PC30 -26752.209304   5643.309555  -5536.549948    -10.202440
PC32 -14246.162066  -6523.204561 -23080.928615   -541.946854
PC33  12569.181010 -24903.420616   -571.120809   -941.978732
PC34  26240.176836  -6554.413609   6911.444643    323.054059
PC35  11025.998376  14319.932721 -21279.496754    482.657991
PC36  -5612.909080  18431.357634  20196.827322    -96.575585
PC37 -19555.813689 -16937.378462  10504.432332   -921.077380
PC38  -5924.240101  33228.793954 -25126.879011    123.503931
PC39 -14763.702954  20888.746175  33513.568759     -6.051966
PC40 -23359.380013  33525.553068 -10924.205500    -47.510215
PC41   -678.379710 -22566.033487 -16351.008265   -873.220502
PC42  19019.363858 -12441.949356  16219.423436   -482.531413
PC43  13546.295446 -14714.502633  19464.008877     51.963037
PC44  24973.310063   6120.258549 -10893.163924    320.240519
PC45  10099.174257  25148.498420   6584.021016    -54.181388
PC46 -17113.272715   2141.076314  21935.176758   -106.828395
PE02  16446.725776  -6768.711200 -23671.388077     85.915439
PE03  27114.721613 -10145.928313   6143.976820    -79.538830
PE04 -18115.589065  19917.130472  12296.019767   -278.126588
PE05  20296.215603   5427.401992  20849.903442   4699.661894
PE07  -1082.016061 -18127.839657 -23375.253546    -92.583829
PE08  18607.599982 -19738.875388 -11845.540793   -190.869530
PE09    871.989099  18062.660416  23430.641047   -259.890590
PE10   1614.530011  18326.292347 -23184.864313   -585.702703
PE11  12436.499114  20555.923397 -17298.611040   3261.557113
PE12  -8358.240084  13731.202459 -24850.084062   -815.169085
PE13 -11788.784335 -20460.249711  17856.735521    -19.671354
PE15   8848.017871 -13352.329407  24903.749976    -74.256551
PE18  20751.995161 -11661.633678   2138.721401     84.893759
PE19 -27140.727588   8305.382367  -8386.587703  -1032.634439
PE21 -14339.668146 -14755.589734  21279.949770   -568.447237
PE24   3418.774175  28780.763828  -5956.087612   -481.175288
PE25  14208.463791  15124.671792 -21100.887864     -2.094052
PE26 -25427.381056 -15157.935604   -177.995455    307.181947
PE27  -3790.884355 -28663.331068   6381.659567   -222.048467
PE30   9160.316677 -25307.883870 -12354.888548   -734.988086
PE31  -8874.507532  25505.620531  12112.194705    -11.566340
PE33 -24271.650621  -1963.123992 -16826.073801      4.037618
PE34  23996.606547   1417.923209  17267.537151    -82.887057
PE36  25222.176060  15490.465600   -462.532257   -156.508565
PG01  22305.407472  14751.778384   -997.550628    163.859020
PG02  20483.187630  15385.208188  -6925.406461   -516.741100
PG03  11697.329300  15593.982234  17944.896138     48.443066
PG04  18105.594058   5351.551137  18741.974457    237.214897
PG05  -6553.466936 -24327.353151  -8439.206947   -153.798626
PG06   7456.248464 -12575.696547  22246.413878    480.544000
PG07  22999.720511   3077.642617 -12861.090023     -9.717699
PG08  11115.997828  11082.604622 -21544.031646   -156.522364
PG09  23717.072846  -5145.360776  10776.623234     24.174098
PG10 -10862.967059  17980.098066 -15851.725384    -64.953474
PG11  -3901.863878 -18303.134520  18889.964357   -497.340377
PG12 -10579.355298 -16943.592795  17263.223456   -456.536652
PG13    332.604233 -15878.578988 -21456.985642    604.750019
PG14  13383.474667 -14430.651954 -17729.942970    268.474762
PG15 -12249.604573 -10664.795701 -21522.353279    106.080365
PG16   -252.429720  26114.576895  -3506.280081   -405.761830
PG17  22808.914146 -13446.638186   3324.246119    722.123972
PG18 -21968.937505  -1748.944037 -14942.226042   -503.968106
PG19  17809.267587 -15857.278233  11127.620096    411.296460
PG20   -396.932613 -26153.864135   5191.064352    397.085280
PG21  18422.149461  16702.743050 -10051.484628    141.788763
PG22  10621.487516 -21114.734311 -11960.784161     67.595691
PG23 -14521.704799   5070.574946 -21613.285154    114.560683
PG24 -20212.246900 -15983.870266  -7681.258372   -391.491351
PG25 -15075.908728  -4138.897685  21170.627438    481.137835
PG26  -3648.950208  25149.416690   6907.257471    209.921555
PG27  -3323.835110  17587.503583 -19743.184222    -81.878889
PG28  -9847.593415  11818.282778  21624.828308    -67.905461
PG29 -23880.082166   2460.396522  11429.783229   -609.828827
PG30  16851.372049  -6556.949196 -19415.539374   -458.410888
PG31  -1621.969748  16274.623225  20639.676897   -226.522336
PG32 -19973.588607  16293.222775   6111.246723   -595.443333
PJ02 -29492.437801  25696.807166  20901.685756     -0.520173
PJ03 -27689.160455  17333.842720 -21944.804344    -11.622771
PJ04 -23315.868699  34243.915521  -3335.895002     74.022002
PR01 -14216.957652  21024.979259   2577.543727     71.918223
PR02  -3225.626304  17538.775656  18246.019196    -22.334465
PR03  10234.601709   4478.735610  22978.811864     90.754646
PR04  17603.567904 -10659.772630  15111.872741    214.856680
PR05  15735.743398 -20075.840752   -931.225847    123.658604
PR07 -10683.584161  -3785.721148 -22809.369557     71.147350
PR08 -17581.661930  10925.454655 -14821.646349    -73.645563
PR09  -8139.889789 -23802.471651  -3956.030191    158.255802
PR11 -12271.839913  -2041.234162  22273.114336   -220.526192
PR12  -3052.609600  16768.777963  18990.284720     34.375197
PR13   6683.707269  23811.017740   6216.807112    -42.224656
PR14  13816.029148  17165.524187 -12857.778911     25.739783
PR15  11923.461137    608.190622 -22527.851041     84.027388
PR16   3013.451084 -16502.468820 -19199.767475     21.461747
PR17  22310.227017   7827.809576  -9504.704014     42.776166
PR18  24521.750891    807.489641   7090.708563    116.445248
PR19  15751.155852  -5662.356928  19253.546786   -257.981276
PR20  -6166.939036 -11237.635673  22061.022174   -105.008610
PR21 -22578.422761  -7784.075935   9006.531787    -60.333221
PR22 -24208.837774   -915.502350  -7935.670376     97.859585
PR24   7195.198931  11427.053654 -21612.157444    -35.610176
PR25 -17415.878256  10482.883550 -15402.706881    -12.645201
EOF
